[{"OBJECT_NAME":"ONEWEB-0017","OBJECT_ID":"2020-008B","EPOCH":"2026-03-09T21:18:16.838496","MEAN_MOTION":13.10370318,"ECCENTRICITY":0.00020566,"INCLINATION":87.8769,"RA_OF_ASC_NODE":56.0409,"ARG_OF_PERICENTER":90.0136,"MEAN_ANOMALY":270.1227,"EPHEMERIS_TYPE":0,"CLASSIFICATION_TYPE":"U","NORAD_CAT_ID":45132,"ELEMENT_SET_NO":999,"REV_AT_EPOCH":29494,"BSTAR":0.00062410881,"MEAN_MOTION_DOT":2.31e-6,"MEAN_MOTION_DDOT":0},{"OBJECT_NAME":"SL-14 DEB","OBJECT_ID":"1991-056DA","EPOCH":"2026-03-09T09:03:06.401088","MEAN_MOTION":13.12015587,"ECCENTRICITY":0.00291996,"INCLINATION":82.5592,"RA_OF_ASC_NODE":225.6095,"ARG_OF_PERICENTER":185.5539,"MEAN_ANOMALY":174.5261,"EPHEMERIS_TYPE":0,"CLASSIFICATION_TYPE":"U","NORAD_CAT_ID":46465,"ELEMENT_SET_NO":999,"REV_AT_EPOCH":26789,"BSTAR":-0.0011030415,"MEAN_MOTION_DOT":-3.83e-6,"MEAN_MOTION_DDOT":0}]
